{
  "norad_id": 56324,
  "name": "STARLINK-6034",
  "history": [
    {
      "epoch": "2026-04-10T06:29:22.991136Z",
      "apogee_km": 551.0366227347895,
      "perigee_km": 547.9897036400162,
      "latitude_deg": 3.0322975259403087e-05,
      "longitude_deg": 166.57294571981222,
      "height_km": 552.5861094978869,
      "semi_major_axis_km": 6927.6501631874025,
      "eccentricity": 0.00021991,
      "inclination_deg": 97.6038,
      "raan_deg": 102.4254,
      "arg_perigee_deg": 90.4293,
      "mean_anomaly_deg": 269.7186,
      "mean_motion_rev_day": 15.05649345
    },
    {
      "epoch": "2026-04-11T17:34:49.510272Z",
      "apogee_km": 551.4849726392686,
      "perigee_km": 547.7342906129061,
      "latitude_deg": 3.669319447579122e-05,
      "longitude_deg": 0.2119217631378122,
      "height_km": 552.5974204690589,
      "semi_major_axis_km": 6927.746631626087,
      "eccentricity": 0.0002707,
      "inclination_deg": 97.6028,
      "raan_deg": 103.866,
      "arg_perigee_deg": 87.7756,
      "mean_anomaly_deg": 272.3781,
      "mean_motion_rev_day": 15.05617896
    },
    {
      "epoch": "2026-04-12T23:53:06.595008Z",
      "apogee_km": 551.0042685945527,
      "perigee_km": 548.0986574993813,
      "latitude_deg": 1.160008747117592e-05,
      "longitude_deg": -94.35893391426299,
      "height_km": 552.6621332189416,
      "semi_major_axis_km": 6927.688463046967,
      "eccentricity": 0.00020971,
      "inclination_deg": 97.6032,
      "raan_deg": 105.1109,
      "arg_perigee_deg": 91.9306,
      "mean_anomaly_deg": 268.2161,
      "mean_motion_rev_day": 15.05636859
    },
    {
      "epoch": "2026-04-14T14:09:55.067616Z",
      "apogee_km": 550.9353120909773,
      "perigee_km": 548.1545405657489,
      "latitude_deg": -2.534377585126573e-06,
      "longitude_deg": 51.43939111032308,
      "height_km": 552.7143019519102,
      "semi_major_axis_km": 6927.681926328363,
      "eccentricity": 0.0002007,
      "inclination_deg": 97.603,
      "raan_deg": 106.6833,
      "arg_perigee_deg": 94.4326,
      "mean_anomaly_deg": 265.713,
      "mean_motion_rev_day": 15.0563899
    },
    {
      "epoch": "2026-04-15T17:16:49.012608Z",
      "apogee_km": 550.9210972433812,
      "perigee_km": 548.1320198947005,
      "latitude_deg": -8.793015594290799e-07,
      "longitude_deg": 4.715049296926842,
      "height_km": 552.7423857928837,
      "semi_major_axis_km": 6927.66355856904,
      "eccentricity": 0.0002013,
      "inclination_deg": 97.6028,
      "raan_deg": 107.7973,
      "arg_perigee_deg": 96.3354,
      "mean_anomaly_deg": 263.8102,
      "mean_motion_rev_day": 15.05644978
    },
    {
      "epoch": "2026-04-16T17:12:18.794016Z",
      "apogee_km": 550.8955950952231,
      "perigee_km": 548.1328477881125,
      "latitude_deg": -1.697817052485748e-06,
      "longitude_deg": 5.840999779132769,
      "height_km": 552.7189097153644,
      "semi_major_axis_km": 6927.651221441667,
      "eccentricity": 0.0001994,
      "inclination_deg": 97.6027,
      "raan_deg": 108.7799,
      "arg_perigee_deg": 95.9298,
      "mean_anomaly_deg": 264.2156,
      "mean_motion_rev_day": 15.05649
    },
    {
      "epoch": "2026-04-17T21:54:54.419040Z",
      "apogee_km": 550.8923368657715,
      "perigee_km": 548.1183703145462,
      "latitude_deg": -2.0547872970732995e-05,
      "longitude_deg": -64.80720725206534,
      "height_km": 552.6939918750642,
      "semi_major_axis_km": 6927.642353590159,
      "eccentricity": 0.00020021,
      "inclination_deg": 97.6028,
      "raan_deg": 109.9592,
      "arg_perigee_deg": 95.2403,
      "mean_anomaly_deg": 264.9052,
      "mean_motion_rev_day": 15.05651891
    },
    {
      "epoch": "2026-04-18T13:51:54.182016Z",
      "apogee_km": 550.8941753240706,
      "perigee_km": 548.1120350578258,
      "latitude_deg": -7.736295269243971e-06,
      "longitude_deg": 55.94363822280698,
      "height_km": 552.6781284547363,
      "semi_major_axis_km": 6927.640105190948,
      "eccentricity": 0.0002008,
      "inclination_deg": 97.6023,
      "raan_deg": 110.6141,
      "arg_perigee_deg": 94.6621,
      "mean_anomaly_deg": 265.4835,
      "mean_motion_rev_day": 15.05652624
    },
    {
      "epoch": "2026-04-19T13:47:23.574624Z",
      "apogee_km": 550.8564005534081,
      "perigee_km": 548.1269148622705,
      "latitude_deg": -1.4559999176262493e-05,
      "longitude_deg": 57.070311295484665,
      "height_km": 552.6274231007452,
      "semi_major_axis_km": 6927.628657707839,
      "eccentricity": 0.000197,
      "inclination_deg": 97.6022,
      "raan_deg": 111.5958,
      "arg_perigee_deg": 93.0976,
      "mean_anomaly_deg": 267.0476,
      "mean_motion_rev_day": 15.05656356
    },
    {
      "epoch": "2026-04-20T10:31:29.325504Z",
      "apogee_km": 550.7871035811113,
      "perigee_km": 548.1922917252377,
      "latitude_deg": -5.949723616478626e-06,
      "longitude_deg": 106.04769329824614,
      "height_km": 552.7421360123618,
      "semi_major_axis_km": 6927.626697653174,
      "eccentricity": 0.00018728,
      "inclination_deg": 97.5998,
      "raan_deg": 112.4487,
      "arg_perigee_deg": 98.4266,
      "mean_anomaly_deg": 261.7173,
      "mean_motion_rev_day": 15.05656995
    },
    {
      "epoch": "2026-04-21T13:38:22.916256Z",
      "apogee_km": 550.9402087020944,
      "perigee_km": 548.1732878190387,
      "latitude_deg": 9.895482427476602e-07,
      "longitude_deg": 59.318626035637266,
      "height_km": 553.3623501016539,
      "semi_major_axis_km": 6927.693748260566,
      "eccentricity": 0.0001997,
      "inclination_deg": 97.5937,
      "raan_deg": 113.5565,
      "arg_perigee_deg": 122.4705,
      "mean_anomaly_deg": 237.6715,
      "mean_motion_rev_day": 15.05635136
    },
    {
      "epoch": "2026-04-22T18:20:59.830368Z",
      "apogee_km": 550.8695287868723,
      "perigee_km": 548.2951882732432,
      "latitude_deg": -5.00819606640177e-05,
      "longitude_deg": -11.335367218122322,
      "height_km": 552.8294185502881,
      "semi_major_axis_km": 6927.719358530057,
      "eccentricity": 0.0001858,
      "inclination_deg": 97.5874,
      "raan_deg": 114.7354,
      "arg_perigee_deg": 98.2364,
      "mean_anomaly_deg": 261.9073,
      "mean_motion_rev_day": 15.05626787
    },
    {
      "epoch": "2026-04-23T10:17:59.098272Z",
      "apogee_km": 550.9252766107111,
      "perigee_km": 548.0848048211774,
      "latitude_deg": 5.7871730588331486e-05,
      "longitude_deg": 109.4134326774755,
      "height_km": 553.1862484318028,
      "semi_major_axis_km": 6927.642040715944,
      "eccentricity": 0.00020501,
      "inclination_deg": 97.5839,
      "raan_deg": 115.3862,
      "arg_perigee_deg": 115.8095,
      "mean_anomaly_deg": 244.3344,
      "mean_motion_rev_day": 15.05651993
    }
  ]
}